ONEWEB-0589             
1 54655C 22166P   23177.29601109 -.00002340  00000-0 -56735-2 0  1777
2 54655  87.9236 100.4184 0003088  91.0939  25.2873 13.21824745    15
ONEWEB-0590             
1 54656C 22166Q   23177.53973794 -.00000336  00000-0 -81362-3 0  1775
2 54656  87.9254 100.3678 0001830  84.2819 351.1188 13.21822807    14
ONEWEB-0591             
1 54657C 22166R   23177.40956433 -.00001818  00000-0 -44084-2 0  1778
2 54657  87.9244 100.3978 0002196  83.9473  32.4560 13.21827078    13
ONEWEB-0592             
1 54658C 22166S   23177.54601111  .00000996  00000-0  24135-2 0  1773
2 54658  87.9317 100.3548 0002273  86.6899 308.5064 13.21824172    14
ONEWEB-0593             
1 54659C 22166T   23177.35366155 -.00000858  00000-0 -20806-2 0  1779
2 54659  87.9235 100.4044 0002335  84.5563   5.9618 13.21824252    12
ONEWEB-0594             
1 54660C 22166U   23177.30224954 -.00000759  00000-0 -18406-2 0  1779
2 54660  87.9311 100.3954 0002069  74.0619  41.9129 13.21825509    11
ONEWEB-0595             
1 54661C 22166V   23177.20539766  .00003654  00000-0  88577-2 0  1770
2 54661  87.9232 100.4292 0001888  78.9238  46.4050 13.21821170    11
ONEWEB-0596             
1 54662C 22166W   23177.32965692 -.00000673  00000-0 -16304-2 0  1774
2 54662  87.9194 100.4059 0002357  89.1976  27.1557 13.21832981    15
ONEWEB-0597             
1 54663C 22166X   23177.38627729 -.00003033  00000-0 -73521-2 0  1774
2 54663  87.9185 100.3956 0002491  80.8337  34.8148 13.21827259    12
ONEWEB-0600             
1 54664C 22166Y   23177.35604581 -.00001384  00000-0 -33549-2 0  1776
2 54664  87.9236 100.4440 0002339  79.9410 341.9358 13.21824197    14
ONEWEB-0601             
1 54665C 22166Z   23177.32723794  .00000204  00000-0  49544-3 0  1773
2 54665  87.9230 100.4042 0002340  92.2836 227.6503 13.21820969    14
ONEWEB-0602             
1 54666C 22166AA  23177.40258516 -.00002278  00000-0 -55235-2 0  1776
2 54666  87.9341 100.3907 0002315  83.7395  29.3852 13.21830468    13
ONEWEB-0603             
1 54667C 22166AB  23177.40746942 -.00001970  00000-0 -47759-2 0  1772
2 54667  87.9176 100.3923 0002696  82.5227  33.8553 13.21830493    17
ONEWEB-0604             
1 54668C 22166AC  23177.46993470 -.00002464  00000-0 -59722-2 0  1771
2 54668  87.9345 100.3757 0002785  77.7479  35.6543 13.21830008    16
ONEWEB-0605             
1 54669C 22166AD  23177.52271250 -.00001205  00000-0 -29222-2 0  1778
2 54669  87.9196 100.4157 0002416  92.6545 301.7308 13.21827996    15
ONEWEB-0606             
1 54670C 22166AE  23177.55326803  .00001166  00000-0  28275-2 0  1779
2 54670  87.9274 100.3468 0001777  78.1589 356.5989 13.21835357    17
ONEWEB-0607             
1 54671C 22166AF  23177.51024722 -.00001279  00000-0 -30997-2 0  1772
2 54671  87.9324 100.3573 0002382  83.5452 311.6244 13.21828042    12
ONEWEB-0608             
1 54672C 22166AG  23177.45782824 -.00002891  00000-0 -70072-2 0  1779
2 54672  87.9180 100.4124 0002650  90.0755  25.7906 13.21835839    13
ONEWEB-0610             
1 54673C 22166AH  23177.43836063 -.00001948  00000-0 -47224-2 0  1778
2 54673  87.9162 100.4160 0002683  89.1426  24.1306 13.21828228    15
ONEWEB-0611             
1 54674C 22166AJ  23177.50778192 -.00000050  00000-0 -12139-3 0  1776
2 54674  87.9236 100.3717 0001721  67.5352  45.8525 13.21825488    13
ONEWEB-0612             
1 54675C 22166AK  23177.50329120 -.00001048  00000-0 -25404-2 0  1776
2 54675  87.9228 100.3721 0002321  92.6851 299.3591 13.21822934    12
ONEWEB-0615             
1 54676C 22166AL  23177.27690229  .00001993  00000-0  48313-2 0  1773
2 54676  87.9242 100.4170 0002400  80.2060  45.1462 13.21826002    15
ONEWEB-0655             
1 54677C 22166AM  23177.25154350  .00001871  00000-0  45362-2 0  1778
2 54677  87.9253 100.4278 0002206  83.4713  41.2642 13.21828543    10
ONEWEB-0659             
1 54678C 22166AN  23177.34216850 -.00000267  00000-0 -64647-3 0  1771
2 54678  87.9241 100.4574 0001723  81.7814  34.0835 13.21831357    14
ONEWEB-0685             
1 54679C 22166AP  23177.41995785 -.00001290  00000-0 -31282-2 0  1776
2 54679  87.9242 100.3908 0003072  78.8632  36.9178 13.21825005    14
ONEWEB-0712             
1 54680C 22166AQ  23177.46750414  .00040827  00000-0  88440-1 0  1775
2 54680  87.9389  85.1628 0001859  76.2254  29.2532 13.29309073    19
ONEWEB-0714             
1 54681C 22166AR  23177.42413609 -.00001263  00000-0 -30624-2 0  1779
2 54681  87.9235 100.3873 0002464  79.3325  36.3369 13.21828632    14
ONEWEB-0532             
1 55140C 23004A   23177.48213377 -.00934454  00000-0 -14564+1 0  1778
2 55140  87.7388 221.8799 0000678 238.9739 198.7124 13.51639171    18
ONEWEB-0533             
1 55141C 23004B   23177.57795553  .00003497  00000-0  11319-2 0  1779
2 55141  86.8391 217.6731 0003536  51.9879  39.0797 14.39170266    11
ONEWEB-0541             
1 55142C 23004C   23177.56647405  .00003990  00000-0  91234-2 0  1773
2 55142  88.0377 236.8161 0002112 111.2443 329.9108 13.25748692    11
ONEWEB-0543             
1 55143C 23004D   23177.57584905  .00004382  00000-0  80117-3 0  1775
2 55143  86.6271 215.6195 0003936  44.9627  46.3117 14.66038548    10
ONEWEB-0544             
1 55144C 23004E   23177.51265461  .00006324  00000-0  11568-2 0  1774
2 55144  86.6294 215.5710 0002939  74.0762  16.5367 14.66015823    11
ONEWEB-0560             
1 55145C 23004F   23177.57376157  .00006519  00000-0  11921-2 0  1775
2 55145  86.6309 215.5709 0001883  65.6404  10.8390 14.66030972    18
ONEWEB-0565             
1 55146C 23004G   23177.33765461  .00001925  00000-0  35210-3 0  1774
2 55146  86.6291 215.5884 0002841  67.1428 354.6671 14.66017125    17
ONEWEB-0567             
1 55147C 23004H   23177.55639303  .00004155  00000-0  75965-3 0  1773
2 55147  86.6289 215.5082 0005106  48.5756  34.2262 14.66037209    11
ONEWEB-0569             
1 55148C 23004J   23177.33348794 -.00001682  00000-0 -30797-3 0  1779
2 55148  86.5341 215.4025 0004643  65.9893  21.3963 14.65972352    17
ONEWEB-0570             
1 55149C 23004K   23177.58663609  .00004362  00000-0  79457-3 0  1774
2 55149  86.6266 215.5104 0003255  73.6582  20.9255 14.66207832    17
ONEWEB-0571             
1 55150C 23004L   23177.56961062  .00004144  00000-0  75758-3 0  1776
2 55150  86.6311 215.5673 0003553  50.7980  43.1367 14.66041262    14
ONEWEB-0572             
1 55151C 23004M   23177.43347637 -.00931680  00000-0 -15755+1 0  1773
2 55151  87.7576 221.8579 0003279  61.7865 163.9304 13.46434398    19
ONEWEB-0573             
1 55152C 23004N   23177.33072174 -.00001690  00000-0 -30956-3 0  1776
2 55152  86.6280 215.6687 0003491  60.6077  11.9848 14.65974680    10
ONEWEB-0588             
1 55153C 23004P   23177.58312914  .00004470  00000-0  81732-3 0  1778
2 55153  86.6274 215.6290 0005529  41.1081  54.6058 14.66029476    19
ONEWEB-0598             
1 55154C 23004Q   23177.31474951 -.00003478  00000-0 -80976-2 0  1777
2 55154  87.9424 237.0571 0002274 111.8561 322.0965 13.24544209    11
ONEWEB-0599             
1 55155C 23004R   23177.41407822 -.00999879  00000-0 -16233+1 0  1774
2 55155  87.7446 221.8839 0013603  28.4174 238.7939 13.49073341    18
ONEWEB-0614             
1 55156C 23004S   23177.55087218  .00003469  00000-0  80910-2 0  1777
2 55156  87.9427 237.0023 0002381 106.0154 333.1909 13.24424817    14
ONEWEB-0616             
1 55157C 23004T   23177.51646991 -.00826634  00000-0 -10435+1 0  1775
2 55157  87.5803 220.2961 0013494  32.0778 120.1648 13.64639510    17
ONEWEB-0617             
1 55158C 23004U   23177.44597637 -.00000591  00000-0 -13765-2 0  1777
2 55158  87.9435 237.0337 0003210 102.8188 321.6302 13.24479135    18
ONEWEB-0618             
1 55159C 23004V   23177.48590692  .00003621  00000-0  15027-2 0  1774
2 55159  86.9101 219.6131 0013520  10.2060  75.4155 14.26590772    16
ONEWEB-0619             
1 55160C 23004W   23177.40921711 -.00967753  00000-0 -14031+1 0  1777
2 55160  87.6905 222.0435 0014556  42.2583 348.9693 13.56183960    12
ONEWEB-0620             
1 55161C 23004X   23177.58141618  .00003164  00000-0  73652-2 0  1778
2 55161  87.9412 237.0043 0002178 103.8678 341.9029 13.24553314    11
ONEWEB-0621             
1 55162C 23004Y   23177.52657822  .00002278  00000-0  40798-2 0  1772
2 55162  87.7028 238.4813 0012603  69.4439   8.7991 13.41778048    17
ONEWEB-0622             
1 55163C 23004Z   23177.49111526 -.00008129  00000-0 -22963-1 0  1771
2 55163  87.8831 236.9979 0003088 113.0825 315.8847 13.11430317    12
ONEWEB-0623             
1 55164C 23004AA  23177.46126157 -.00944371  00000-0 -13701+1 0  1772
2 55164  87.6981 222.0599 0013704  31.0249 304.5538 13.56126350    16
ONEWEB-0624             
1 55165C 23004AB  23177.52273562 -.00014964  00000-0 -27343-2 0  1778
2 55165  86.6317 215.5201 0005304 102.3610 338.4906 14.66079074    14
ONEWEB-0625             
1 55166C 23004AC  23177.51616155 -.00941510  00000-0 -13140+1 0  1771
2 55166  87.6656 222.0836 0012296  29.1298  53.2915 13.58551409    14
ONEWEB-0626             
1 55167C 23004AD  23177.29808285 -.00887261  00000-0 -12516+1 0  1772
2 55167  87.6659 222.0934 0016767  55.0383 314.3846 13.57805571    12
ONEWEB-0627             
1 55168C 23004AE  23177.51928653 -.00922010  00000-0 -14048+1 0  1774
2 55168  87.7234 221.9865 0002815 107.1154  42.6601 13.53058252    10
ONEWEB-0628             
1 55169C 23004AF  23177.19493470 -.00003900  00000-0 -71472-3 0  1778
2 55169  86.6314 215.6775 0006240  55.0280  18.9178 14.65938372    14
ONEWEB-0629             
1 55170C 23004AG  23177.48558285 -.00884075  00000-0 -12118+1 0  1777
2 55170  87.6474 222.0962 0015136  41.8062  93.3633 13.59599421    12
ONEWEB-0631             
1 55171C 23004AH  23177.27378887 -.00004353  00000-0 -79692-3 0  1779
2 55171  86.6307 215.6479 0004011  80.0789   3.6752 14.65989718    15
